NORAD_CAT_ID,OBJECT_NAME,OBJECT_TYPE,EPOCH,MEAN_MOTION,ECCENTRICITY,INCLINATION,RA_OF_ASC_NODE,ARG_OF_PERICENTER,MEAN_ANOMALY,BSTAR,MEAN_MOTION_DOT,MEAN_MOTION_DDOT,TLE_LINE0,TLE_LINE1,TLE_LINE2,SEMIMAJOR_AXIS,PERIOD,APOGEE,PERIGEE,DECAYED
53623.0,STARLINK-4573,PAYLOAD,2023-01-13 22:43:07,15.08831719,0.0001657,53.218,359.8762,82.0713,278.0467,2.8497e-05,1.65e-06,0.0,0 STARLINK-4573,1 53623U 22104AM  23013.94661503  .00000165  00000-0  28497-4 0  9997,2 53623  53.2180 359.8762 0001657  82.0713 278.0467 15.08831719 22023,6917.906,95.438,540.9169999999999,538.624,0.0
53623.0,STARLINK-4573,PAYLOAD,2023-01-14 08:15:25,15.08849901,0.0001475,53.2192,358.0914,84.8157,275.3004,8.700899999999999e-05,1.097e-05,0.0,0 STARLINK-4573,1 53623U 22104AM  23014.34404092  .00001097  00000-0  87009-4 0  9999,2 53623  53.2192 358.0914 0001475  84.8157 275.3004 15.08849901 21406,6917.85,95.437,540.736,538.695,0.0
53623.0,STARLINK-4573,PAYLOAD,2023-01-14 16:12:21,15.08841872,0.0001349,53.2186,356.6066,87.74600000000001,272.3686,2.9708e-05,1.85e-06,0.0,0 STARLINK-4573,1 53623U 22104AM  23014.67524661  .00000185  00000-0  29708-4 0  9999,2 53623  53.2186 356.6066 0001349  87.7460 272.3686 15.08841872 21457,6917.875,95.437,540.673,538.806,0.0
53623.0,STARLINK-4573,PAYLOAD,2023-01-15 08:06:12,15.0885038,0.000154,53.2181,353.631,86.1275,273.9893,4.2696000000000006e-05,3.92e-06,0.0,0 STARLINK-4573,1 53623U 22104AM  23015.33763983  .00000392  00000-0  42696-4 0  9996,2 53623  53.2181 353.6310 0001540  86.1275 273.9893 15.08850380 22239,6917.849,95.437,540.779,538.648,0.0
53623.0,STARLINK-4573,PAYLOAD,2023-01-15 16:03:07,15.08848451,0.0001419,53.219,352.1458,91.2853,268.8302,-3.253e-05,-8.06e-06,0.0,0 STARLINK-4573,1 53623U 22104AM  23015.66884209 -.00000806  00000-0 -32530-4 0  9995,2 53623  53.2190 352.1458 0001419  91.2853 268.8302 15.08848451 22289,6917.855,95.437,540.701,538.738,0.0
53623.0,STARLINK-4573,PAYLOAD,2023-01-16 04:46:11,15.08870276,0.0001176,53.2197,349.7646,94.455,265.6577,0.00013651,1.887e-05,0.0,0 STARLINK-4573,1 53623U 22104AM  23016.19873926  .00001887  00000-0  13651-3 0  9998,2 53623  53.2197 349.7646 0001176  94.4550 265.6577 15.08870276 21688,6917.7880000000005,95.436,540.466,538.839,0.0
53623.0,STARLINK-4573,PAYLOAD,2023-01-17 14:09:20,15.08838677,8.690000000000001e-05,53.2189,343.5237,98.5747,261.5344,-0.00028035,-4.746e-05,0.0,0 STARLINK-4573,1 53623U 22104AM  23017.58981867 -.00004746  00000-0 -28035-3 0  9997,2 53623  53.2189 343.5237 0000869  98.5747 261.5344 15.08838677 21897,6917.884,95.438,540.351,539.148,0.0
53623.0,STARLINK-4573,PAYLOAD,2023-01-17 22:06:16,15.08824901,0.000103,53.2199,342.0377,83.215,276.8959,-0.00015482,-2.75e-05,0.0,0 STARLINK-4573,1 53623U 22104AM  23017.92102694 -.00002750  00000-0 -15482-3 0  9993,2 53623  53.2199 342.0377 0001030  83.2150 276.8959 15.08824901 21949,6917.927,95.439,540.504,539.0790000000001,0.0
53623.0,STARLINK-4573,PAYLOAD,2023-01-18 06:03:09,15.08861607,0.0001118,53.2201,340.55,88.2314,271.8806,-1.3758e-05,-5.07e-06,0.0,0 STARLINK-4573,1 53623U 22104AM  23018.25219512 -.00000507  00000-0 -13758-4 0  9991,2 53623  53.2201 340.5500 0001118  88.2314 271.8806 15.08861607 21993,6917.814,95.436,540.453,538.906,0.0
53623.0,STARLINK-4573,PAYLOAD,2023-01-19 01:07:48,15.08832087,0.000135,53.22,336.982,71.7284,288.3855,0.0001927,2.78e-05,0.0,0 STARLINK-4573,1 53623U 22104AM  23019.04709063  .00002780  00000-0  19270-3 0  9991,2 53623  53.2200 336.9820 0001350  71.7284 288.3855 15.08832087 22119,6917.905,95.438,540.703,538.836,0.0
53623.0,STARLINK-4573,PAYLOAD,2023-01-19 07:29:19,15.08852793,0.0001230999999999,53.2191,335.7909,75.1032,285.0097,0.00030419,4.558e-05,0.0,0 STARLINK-4573,1 53623U 22104AM  23019.31203397  .00004558  00000-0  30419-3 0  9993,2 53623  53.2191 335.7909 0001231  75.1032 285.0097 15.08852793 22152,6917.840999999999,95.437,540.558,538.855,0.0
53623.0,STARLINK-4573,PAYLOAD,2023-01-21 02:24:46,15.08842673,0.0001393,53.2189,327.7621,100.1399,259.975,-0.00018949,-3.303e-05,0.0,0 STARLINK-4573,1 53623U 22104AM  23021.10054174 -.00003303  00000-0 -18949-3 0  9993,2 53623  53.2189 327.7621 0001393 100.1399 259.9750 15.08842673 22427,6917.871999999999,95.437,540.701,538.774,0.0
53623.0,STARLINK-4573,PAYLOAD,2023-01-21 05:35:32,15.08857626,0.000144,53.2189,327.1673,89.9458,270.1699,-5.052e-05,-1.092e-05,0.0,0 STARLINK-4573,1 53623U 22104AM  23021.23300943 -.00001092  00000-0 -50520-4 0  9990,2 53623  53.2189 327.1673 0001440  89.9458 270.1699 15.08857626 22444,6917.826999999999,95.436,540.688,538.695,0.0
53623.0,STARLINK-4573,PAYLOAD,2023-01-22 02:15:33,15.08846907,0.000146,53.2195,323.3004,101.3199,258.7957,-5.5865e-05,-1.177e-05,0.0,0 STARLINK-4573,1 53623U 22104AM  23022.09414053 -.00001177  00000-0 -55865-4 0  9994,2 53623  53.2195 323.3004 0001460 101.3199 258.7957 15.08846907 22573,6917.859,95.437,540.734,538.714,0.0
53623.0,STARLINK-4573,PAYLOAD,2023-01-22 13:23:16,15.08834938,0.0001895,53.2191,321.2197,87.8812,272.2397,-0.00014184,-2.545e-05,0.0,0 STARLINK-4573,1 53623U 22104AM  23022.55783084 -.00002545  00000-0 -14184-3 0  9996,2 53623  53.2191 321.2197 0001895  87.8812 272.2397 15.08834938 22649,6917.896,95.438,541.072,538.45,0.0
53623.0,STARLINK-4573,PAYLOAD,2023-01-23 19:35:35,15.08851863,0.0001105,53.2182,315.5711,85.1954,274.9165,-5.9567e-05,-1.236e-05,0.0,0 STARLINK-4573,1 53623U 22104AM  23023.81637747 -.00001236  00000-0 -59567-4 0  9991,2 53623  53.2182 315.5711 0001105  85.1954 274.9165 15.08851863 22838,6917.844,95.437,540.474,538.945,0.0
53623.0,STARLINK-4573,PAYLOAD,2023-01-24 05:07:52,15.0886532,0.00011,53.2194,313.785,86.0853,274.0265,8.1458e-05,1.01e-05,0.0,0 STARLINK-4573,1 53623U 22104AM  23024.21379997  .00001010  00000-0  81458-4 0  9998,2 53623  53.2194 313.7850 0001100  86.0853 274.0265 15.08865320 22899,6917.803000000001,95.436,540.429,538.9069999999999,0.0
53623.0,STARLINK-4573,PAYLOAD,2023-01-25 01:47:54,15.088393,9.46e-05,53.2188,309.9212,74.0193,286.0904,2.68e-05,1.39e-06,0.0,0 STARLINK-4573,1 53623U 22104AM  23025.07493898  .00000139  00000-0  26800-4 0  9991,2 53623  53.2188 309.9212 0000946  74.0193 286.0904 15.08839300 23020,6917.883000000001,95.438,540.4019999999999,539.0930000000001,0.0
53623.0,STARLINK-4573,PAYLOAD,2023-01-25 11:20:14,15.08827244,0.0001060999999999,53.2191,308.1365,76.8895,283.2216,7.161899999999999e-05,8.52e-06,0.0,0 STARLINK-4573,1 53623U 22104AM  23025.47238616  .00000852  00000-0  71619-4 0  9990,2 53623  53.2191 308.1365 0001061  76.8895 283.2216 15.08827244 23087,6917.919,95.438,540.518,539.05,0.0
53623.0,STARLINK-4573,PAYLOAD,2023-01-25 19:17:09,15.08838285,9.57e-05,53.2194,306.6486,85.9688,274.1413,-0.00018306,-3.2e-05,0.0,0 STARLINK-4573,1 53623U 22104AM  23025.80358790 -.00003200  00000-0 -18306-3 0  9998,2 53623  53.2194 306.6486 0000957  85.9688 274.1413 15.08838285 23817,6917.886,95.438,540.413,539.089,0.0
53623.0,STARLINK-4573,PAYLOAD,2023-01-26 01:38:41,15.08849206,8.39e-05,53.2188,305.461,84.89299999999999,275.2158,-5.9158000000000005e-05,-1.229e-05,0.0,0 STARLINK-4573,1 53623U 22104AM  23026.06853885 -.00001229  00000-0 -59158-4 0  9992,2 53623  53.2188 305.4610 0000839  84.8930 275.2158 15.08849206 23175,6917.852,95.437,540.298,539.137,0.0
53623.0,STARLINK-4573,PAYLOAD,2023-01-26 22:18:43,15.08837384,6.24e-05,53.2174,301.5978,104.8351,255.2711,-4.084e-05,-9.37e-06,0.0,0 STARLINK-4573,1 53623U 22104AM  23026.92966526 -.00000937  00000-0 -40840-4 0  9997,2 53623  53.2174 301.5978 0000624 104.8351 255.2711 15.08837384 23308,6917.888000000001,95.438,540.185,539.322,0.0
53623.0,STARLINK-4573,PAYLOAD,2023-01-27 03:04:51,15.08845752,6.56e-05,53.2184,300.7033,88.1068,271.9999,1.5605e-05,-3.9e-07,0.0,0 STARLINK-4573,1 53623U 22104AM  23027.12837814 -.00000039  00000-0  15605-4 0  9990,2 53623  53.2184 300.7033 0000656  88.1068 271.9999 15.08845752 23330,6917.863,95.437,540.182,539.274,0.0
53623.0,STARLINK-4573,PAYLOAD,2023-01-27 20:34:07,15.08826794,9.53e-05,53.2175,297.4338,101.0312,259.0787,1.3671e-06,-2.66e-06,0.0,0 STARLINK-4573,1 53623U 22104AM  23027.85703351 -.00000266  00000-0  13671-5 0  9992,2 53623  53.2175 297.4338 0000953 101.0312 259.0787 15.08826794 24122,6917.920999999999,95.438,540.445,539.126,0.0
53623.0,STARLINK-4573,PAYLOAD,2023-01-28 01:20:16,15.08837845,8.170000000000001e-05,53.2177,296.5423,79.1388,280.9696,6.3171e-06,-1.87e-06,0.0,0 STARLINK-4573,1 53623U 22104AM  23028.05574893 -.00000187  00000-0  63171-5 0  9994,2 53623  53.2177 296.5423 0000817  79.1388 280.9696 15.08837845 23474,6917.887,95.438,540.317,539.187,0.0
53623.0,STARLINK-4573,PAYLOAD,2023-01-28 20:24:54,15.08842091,9.39e-05,53.2183,292.9728,71.3379,288.7715,2.8011e-05,1.58e-06,0.0,0 STARLINK-4573,1 53623U 22104AM  23028.85062646  .00000158  00000-0  28011-4 0  9990,2 53623  53.2183 292.9728 0000939  71.3379 288.7715 15.08842091 24274,6917.874,95.437,540.389,539.089,0.0
53623.0,STARLINK-4573,PAYLOAD,2023-01-29 01:11:02,15.08849209,8.88e-05,53.2178,292.0813,78.3202,281.789,8.3102e-05,1.035e-05,0.0,0 STARLINK-4573,1 53623U 22104AM  23029.04933926  .00001035  00000-0  83102-4 0  9997,2 53623  53.2178 292.0813 0000888  78.3202 281.7890 15.08849209 23622,6917.852,95.437,540.332,539.103,0.0
53623.0,STARLINK-4573,PAYLOAD,2023-01-29 20:15:41,15.08833468,9.89e-05,53.2172,288.5133,89.0039,271.1066,-4.113e-05,-9.42e-06,0.0,0 STARLINK-4573,1 53623U 22104AM  23029.84423441 -.00000942  00000-0 -41130-4 0  9994,2 53623  53.2172 288.5133 0000989  89.0039 271.1066 15.08833468 24427,6917.9,95.438,540.45,539.081,0.0
53623.0,STARLINK-4573,PAYLOAD,2023-01-29 23:26:27,15.08838164,0.0001001,53.2179,287.9174,84.1349,275.9757,-1.8323e-05,-5.79e-06,0.0,0 STARLINK-4573,1 53623U 22104AM  23029.97671089 -.00000579  00000-0 -18323-4 0  9995,2 53623  53.2179 287.9174 0001001  84.1349 275.9757 15.08838164 23761,6917.886,95.438,540.443,539.059,0.0
